{"dragon": {"capsule": null, "mass_returned_kg": null, "mass_returned_lbs": null, "flight_time_sec": null, "manifest": null, "water_landing": null, "land_landing": null}, "name": "Starlink-5", "type": "Satellite", "reused": false, "launch": "5eb87d43ffd86e000604b385", "customers": ["SpaceX"], "norad_ids": [45178, 45179, 45180, 45181, 45182, 45183, 45184, 45185, 45186, 45187, 45188, 45189, 45190, 45191, 45192, 45193, 45194, 45195, 45196, 45197, 45198, 45199, 45200, 45201, 45202, 45203, 45204, 45205, 45206, 45207, 45208, 45209, 45210, 45211, 45212, 45213, 45214, 45215, 45216, 45217, 45218, 45219, 45220, 45221, 45222, 45223, 45224, 45225, 45226, 45227, 45228, 45229, 45230, 45231, 45232, 45233, 45234, 45235, 45236, 45237], "nationalities": ["United States"], "manufacturers": ["SpaceX"], "mass_kg": 15600, "mass_lbs": 34392, "orbit": "VLEO", "reference_system": "geocentric", "regime": "very-low-earth", "longitude": null, "semi_major_axis_km": 6925.367, "eccentricity": 0.0001565, "periapsis_km": 546.148, "apoapsis_km": 548.316, "inclination_deg": 53.0538, "period_min": 95.593, "lifespan_years": null, "epoch": "2022-01-29T10:40:23.000Z", "mean_motion": 15.06393962, "raan": 301.4713, "arg_of_pericenter": 69.8849, "mean_anomaly": 290.2308, "id": "5eb0e4d0b6c3bb0006eeb254"}